IXPE                    
1 49954U 21121A   24138.91667824  .00012838  00000+0  99199-3 0  9990
2 49954   0.2306 258.2687 0009786 190.7161 309.8510 14.97840424  5797
